start=new Date('2023-02-14T00:00:00.000Z').valueOf();
sats=[{"GP_ID":"225323248","TLE_LINE1":"1 48459U 21040AH  23044.50013038  .00027107  00000-0  18309-2 0  9990","CENTER_NAME":"EARTH","SEMIMAJOR_AXIS":"6925.299","EPHEMERIS_TYPE":"0","MEAN_ANOMALY":"270.1592","INCLINATION":"53.0525","OBJECT_ID":"2021-040AH","APOAPSIS":"548.215","REV_AT_EPOCH":"9772","EPOCH":"2023-02-13T12:00:11.264832","REF_FRAME":"TEME","NORAD_CAT_ID":"48459","BSTAR":"0.00183090000000","ECCENTRICITY":"0.00015180","RA_OF_ASC_NODE":"175.7023","SITE":"AFETR","FILE":"3789366","LAUNCH_DATE":"2021-05-09","OBJECT_TYPE":"PAYLOAD","MEAN_MOTION":"15.06416181","RCS_SIZE":"LARGE","MEAN_MOTION_DDOT":"0.0000000000000","TIME_SYSTEM":"UTC","COUNTRY_CODE":"US","PERIAPSIS":"546.113","MEAN_ELEMENT_THEORY":"SGP4","CLASSIFICATION_TYPE":"U","DECAY_DATE":null,"MEAN_MOTION_DOT":"0.00027107","ELEMENT_SET_NO":"999","OBJECT_NAME":"STARLINK-2579","PERIOD":"95.591","ARG_OF_PERICENTER":"89.9571","TLE_LINE2":"2 48459  53.0525 175.7023 0001518  89.9571 270.1592 15.06416181 97725"},{"PERIOD":"95.591","ARG_OF_PERICENTER":"65.5320","TLE_LINE2":"2 48460  53.0529 174.0728 0001228  65.5320 294.5797 15.06413430 98266","MEAN_MOTION_DOT":"0.00001602","ELEMENT_SET_NO":"999","OBJECT_NAME":"STARLINK-2582","DECAY_DATE":null,"TIME_SYSTEM":"UTC","COUNTRY_CODE":"US","PERIAPSIS":"546.322","MEAN_ELEMENT_THEORY":"SGP4","CLASSIFICATION_TYPE":"U","OBJECT_TYPE":"PAYLOAD","LAUNCH_DATE":"2021-05-09","RCS_SIZE":"LARGE","MEAN_MOTION":"15.06413430","MEAN_MOTION_DDOT":"0.0000000000000","SITE":"AFETR","FILE":"3789683","RA_OF_ASC_NODE":"174.0728","BSTAR":"0.00012634000000","ECCENTRICITY":"0.00012280","REF_FRAME":"TEME","NORAD_CAT_ID":"48460","REV_AT_EPOCH":"9826","APOAPSIS":"548.023","EPOCH":"2023-02-13T18:48:48.342240","INCLINATION":"53.0529","OBJECT_ID":"2021-040AJ","EPHEMERIS_TYPE":"0","MEAN_ANOMALY":"294.5797","GP_ID":"225335850","TLE_LINE1":"1 48460U 21040AJ  23044.78389285  .00001602  00000-0  12634-3 0  9990","SEMIMAJOR_AXIS":"6925.307","CENTER_NAME":"EARTH"},{"BSTAR":"0.00010578000000","ECCENTRICITY":"0.00010340","RA_OF_ASC_NODE":"175.5003","FILE":"3789683","SITE":"AFETR","OBJECT_TYPE":"PAYLOAD","LAUNCH_DATE":"2021-05-09","MEAN_MOTION_DDOT":"0.0000000000000","RCS_SIZE":"LARGE","MEAN_MOTION":"15.06399536","TIME_SYSTEM":"UTC","COUNTRY_CODE":"US","CLASSIFICATION_TYPE":"U","MEAN_ELEMENT_THEORY":"SGP4","PERIAPSIS":"546.499","DECAY_DATE":null,"ELEMENT_SET_NO":"999","MEAN_MOTION_DOT":"0.00001295","OBJECT_NAME":"STARLINK-2693","ARG_OF_PERICENTER":"98.5309","PERIOD":"95.592","TLE_LINE2":"2 48461  53.0503 175.5003 0001034  98.5309 261.5797 15.06399536 98993","TLE_LINE1":"1 48461U 21040AK  23044.46691285  .00001295  00000-0  10578-3 0  9995","GP_ID":"225335858","SEMIMAJOR_AXIS":"6925.350","CENTER_NAME":"EARTH","EPHEMERIS_TYPE":"0","MEAN_ANOMALY":"261.5797","INCLINATION":"53.0503","OBJECT_ID":"2021-040AK","REV_AT_EPOCH":"9899","APOAPSIS":"547.931","EPOCH":"2023-02-13T11:12:21.270240","REF_FRAME":"TEME","NORAD_CAT_ID":"48461"},{"NORAD_CAT_ID":"48462","REF_FRAME":"TEME","EPOCH":"2023-02-13T15:34:29.496864","REV_AT_EPOCH":"9827","APOAPSIS":"548.092","INCLINATION":"53.0522","OBJECT_ID":"2021-040AL","MEAN_ANOMALY":"285.3068","EPHEMERIS_TYPE":"0","SEMIMAJOR_AXIS":"6925.174","CENTER_NAME":"EARTH","GP_ID":"225335856","TLE_LINE1":"1 48462U 21040AL  23044.64895251  .00038290  00000-0  25716-2 0  9999","TLE_LINE2":"2 48462  53.0522 179.9572 0001520  74.8089 285.3068 15.06456795 98273","PERIOD":"95.589","ARG_OF_PERICENTER":"74.8089","OBJECT_NAME":"STARLINK-2683","ELEMENT_SET_NO":"999","MEAN_MOTION_DOT":"0.00038290","DECAY_DATE":null,"MEAN_ELEMENT_THEORY":"SGP4","PERIAPSIS":"545.987","CLASSIFICATION_TYPE":"U","COUNTRY_CODE":"US","TIME_SYSTEM":"UTC","RCS_SIZE":"LARGE","MEAN_MOTION_DDOT":"0.0000000000000","MEAN_MOTION":"15.06456795","LAUNCH_DATE":"2021-05-09","OBJECT_TYPE":"PAYLOAD","SITE":"AFETR","FILE":"3789683","RA_OF_ASC_NODE":"179.9572","ECCENTRICITY":"0.00015200","BSTAR":"0.00257160000000"},{"ECCENTRICITY":"0.00012930","BSTAR":"0.00070032000000","RA_OF_ASC_NODE":"179.0553","FILE":"3789408","SITE":"AFETR","MEAN_MOTION":"15.06409447","RCS_SIZE":"LARGE","MEAN_MOTION_DDOT":"0.0000000000000","LAUNCH_DATE":"2021-05-09","OBJECT_TYPE":"PAYLOAD","CLASSIFICATION_TYPE":"U","MEAN_ELEMENT_THEORY":"SGP4","PERIAPSIS":"546.289","COUNTRY_CODE":"US","TIME_SYSTEM":"UTC","DECAY_DATE":null,"OBJECT_NAME":"STARLINK-2689","MEAN_MOTION_DOT":"0.00010168","ELEMENT_SET_NO":"999","TLE_LINE2":"2 48463  53.0515 179.0553 0001293  91.2823 268.8314 15.06409447 98971","ARG_OF_PERICENTER":"91.2823","PERIOD":"95.592","SEMIMAJOR_AXIS":"6925.320","CENTER_NAME":"EARTH","TLE_LINE1":"1 48463U 21040AM  23044.78802794  .00010168  00000-0  70032-3 0  9991","GP_ID":"225328835","MEAN_ANOMALY":"268.8314","EPHEMERIS_TYPE":"0","INCLINATION":"53.0515","OBJECT_ID":"2021-040AM","EPOCH":"2023-02-13T18:54:45.614016","APOAPSIS":"548.080","REV_AT_EPOCH":"9897","NORAD_CAT_ID":"48463","REF_FRAME":"TEME"},{"CLASSIFICATION_TYPE":"U","MEAN_ELEMENT_THEORY":"SGP4","PERIAPSIS":"546.409","TIME_SYSTEM":"UTC","COUNTRY_CODE":"US","DECAY_DATE":null,"OBJECT_NAME":"STARLINK-2686","ELEMENT_SET_NO":"999","MEAN_MOTION_DOT":"0.00001149","TLE_LINE2":"2 48464  53.0530 180.3399 0001183  89.9285 270.1839 15.06395313 98936","ARG_OF_PERICENTER":"89.9285","PERIOD":"95.592","ECCENTRICITY":"0.00011830","BSTAR":"0.00009600600000","RA_OF_ASC_NODE":"180.3399","SITE":"AFETR","FILE":"3788964","RCS_SIZE":"LARGE","MEAN_MOTION":"15.06395313","MEAN_MOTION_DDOT":"0.0000000000000","OBJECT_TYPE":"PAYLOAD","LAUNCH_DATE":"2021-05-09","INCLINATION":"53.0530","OBJECT_ID":"2021-040AN","EPOCH":"2023-02-13T12:02:07.138464","APOAPSIS":"548.047","REV_AT_EPOCH":"9893","NORAD_CAT_ID":"48464","REF_FRAME":"TEME","SEMIMAJOR_AXIS":"6925.363","CENTER_NAME":"EARTH","TLE_LINE1":"1 48464U 21040AN  23044.50147151  .00001149  00000-0  96006-4 0  9990","GP_ID":"225292926","MEAN_ANOMALY":"270.1839","EPHEMERIS_TYPE":"0"},{"ECCENTRICITY":"0.00010380","BSTAR":"0.00174950000000","RA_OF_ASC_NODE":"180.2828","SITE":"AFETR","FILE":"3788964","MEAN_MOTION":"15.06404910","RCS_SIZE":"LARGE","MEAN_MOTION_DDOT":"0.0000000000000","LAUNCH_DATE":"2021-05-09","OBJECT_TYPE":"PAYLOAD","PERIAPSIS":"546.480","MEAN_ELEMENT_THEORY":"SGP4","CLASSIFICATION_TYPE":"U","COUNTRY_CODE":"US","TIME_SYSTEM":"UTC","DECAY_DATE":null,"OBJECT_NAME":"STARLINK-2681","ELEMENT_SET_NO":"999","MEAN_MOTION_DOT":"0.00025877","TLE_LINE2":"2 48465  53.0544 180.2828 0001038  72.8793 287.2309 15.06404910 98937","PERIOD":"95.592","ARG_OF_PERICENTER":"72.8793","SEMIMAJOR_AXIS":"6925.334","CENTER_NAME":"EARTH","GP_ID":"225292547","TLE_LINE1":"1 48465U 21040AP  23044.51252902  .00025877  00000-0  17495-2 0  9990","MEAN_ANOMALY":"287.2309","EPHEMERIS_TYPE":"0","OBJECT_ID":"2021-040AP","INCLINATION":"53.0544","EPOCH":"2023-02-13T12:18:02.507328","APOAPSIS":"547.917","REV_AT_EPOCH":"9893","NORAD_CAT_ID":"48465","REF_FRAME":"TEME"},{"OBJECT_NAME":"STARLINK-2687","ELEMENT_SET_NO":"999","MEAN_MOTION_DOT":"0.00001468","TLE_LINE2":"2 48466  53.0527 180.3567 0001375  71.9545 288.1593 15.06390262 97667","ARG_OF_PERICENTER":"71.9545","PERIOD":"95.593","CLASSIFICATION_TYPE":"U","MEAN_ELEMENT_THEORY":"SGP4","PERIAPSIS":"546.291","TIME_SYSTEM":"UTC","COUNTRY_CODE":"US","DECAY_DATE":null,"SITE":"AFETR","FILE":"3789366","RCS_SIZE":"LARGE","MEAN_MOTION":"15.06390262","MEAN_MOTION_DDOT":"0.0000000000000","OBJECT_TYPE":"PAYLOAD","LAUNCH_DATE":"2021-05-09","ECCENTRICITY":"0.00013750","BSTAR":"0.00011748000000","RA_OF_ASC_NODE":"180.3567","EPOCH":"2023-02-13T11:56:48.951456","REV_AT_EPOCH":"9766","APOAPSIS":"548.196","NORAD_CAT_ID":"48466","REF_FRAME":"TEME","OBJECT_ID":"2021-040AQ","INCLINATION":"53.0527","SEMIMAJOR_AXIS":"6925.378","CENTER_NAME":"EARTH","TLE_LINE1":"1 48466U 21040AQ  23044.49778879  .00001468  00000-0  11748-3 0  9990","GP_ID":"225323979","MEAN_ANOMALY":"288.1593","EPHEMERIS_TYPE":"0"},{"RA_OF_ASC_NODE":"179.0485","ECCENTRICITY":"0.00012020","BSTAR":"0.00038912000000","MEAN_MOTION_DDOT":"0.0000000000000","RCS_SIZE":"LARGE","MEAN_MOTION":"15.06410991","OBJECT_TYPE":"PAYLOAD","LAUNCH_DATE":"2021-05-09","FILE":"3789683","SITE":"AFETR","DECAY_DATE":null,"CLASSIFICATION_TYPE":"U","PERIAPSIS":"546.347","MEAN_ELEMENT_THEORY":"SGP4","TIME_SYSTEM":"UTC","COUNTRY_CODE":"US","TLE_LINE2":"2 48467  53.0515 179.0485 0001202  76.2746 283.8376 15.06410991 98977","ARG_OF_PERICENTER":"76.2746","PERIOD":"95.591","OBJECT_NAME":"STARLINK-2659","MEAN_MOTION_DOT":"0.00005521","ELEMENT_SET_NO":"999","MEAN_ANOMALY":"283.8376","EPHEMERIS_TYPE":"0","SEMIMAJOR_AXIS":"6925.315","CENTER_NAME":"EARTH","TLE_LINE1":"1 48467U 21040AR  23044.78896902  .00005521  00000-0  38912-3 0  9997","GP_ID":"225335490","INCLINATION":"53.0515","OBJECT_ID":"2021-040AR","NORAD_CAT_ID":"48467","REF_FRAME":"TEME","EPOCH":"2023-02-13T18:56:06.923328","REV_AT_EPOCH":"9897","APOAPSIS":"548.012"},{"CLASSIFICATION_TYPE":"U","PERIAPSIS":"546.361","MEAN_ELEMENT_THEORY":"SGP4","TIME_SYSTEM":"UTC","COUNTRY_CODE":"US","DECAY_DATE":null,"OBJECT_NAME":"STARLINK-2685","ELEMENT_SET_NO":"999","MEAN_MOTION_DOT":"0.00016031","TLE_LINE2":"2 48468  53.0508 180.3257 0001225  72.6218 287.4905 15.06401337 97668","ARG_OF_PERICENTER":"72.6218","PERIOD":"95.592","ECCENTRICITY":"0.00012250","BSTAR":"0.00109260000000","RA_OF_ASC_NODE":"180.3257","SITE":"AFETR","FILE":"3789366","MEAN_MOTION":"15.06401337","RCS_SIZE":"LARGE","MEAN_MOTION_DDOT":"0.0000000000000","OBJECT_TYPE":"PAYLOAD","LAUNCH_DATE":"2021-05-09","INCLINATION":"53.0508","OBJECT_ID":"2021-040AS","EPOCH":"2023-02-13T12:07:25.125024","REV_AT_EPOCH":"9766","APOAPSIS":"548.058","NORAD_CAT_ID":"48468","REF_FRAME":"TEME","SEMIMAJOR_AXIS":"6925.344","CENTER_NAME":"EARTH","TLE_LINE1":"1 48468U 21040AS  23044.50515191  .00016031  00000-0  10926-2 0  9998","GP_ID":"225323499","MEAN_ANOMALY":"287.4905","EPHEMERIS_TYPE":"0"}];
